OBJECT_NAME,OBJECT_ID,EPOCH,MEAN_MOTION,ECCENTRICITY,INCLINATION,RA_OF_ASC_NODE,ARG_OF_PERICENTER,MEAN_ANOMALY,EPHEMERIS_TYPE,CLASSIFICATION_TYPE,NORAD_CAT_ID,ELEMENT_SET_NO,REV_AT_EPOCH,BSTAR,MEAN_MOTION_DOT,MEAN_MOTION_DDOT
TANAGER-1,2024-149AR,2026-06-18T18:41:35.517120,15.44815637,.0003199,97.2542,264.0287,300.0531,60.0400,0,U,60507,999,10328,.71918609E-4,.3281E-4,0
EAGLEEYE,2024-149AS,2026-06-18T18:18:07.584192,15.71171976,.00044103,97.3722,263.1881,234.6245,125.4606,0,U,60508,999,10318,.61908045E-3,.78488E-3,0
FLOCK 4BE-29,2024-149AT,2026-06-18T17:38:45.441024,15.44184922,.00013762,97.3810,255.6313,280.7296,79.3798,0,U,60509,999,10265,.28735874E-3,.13096E-3,0
TRANSPORTER-11 OBJECT AU,2024-149AU,2026-06-18T16:22:16.152960,15.40256688,.0002268,97.3730,253.4146,280.4423,79.6567,0,U,60510,999,10254,.28374205E-3,.11336E-3,0
FLOCK 4BE-2,2024-149AV,2026-06-18T22:16:22.111680,15.52868327,.00035494,97.3833,257.2725,246.8825,113.2054,0,U,60511,999,10277,.72758965E-3,.45253E-3,0
FLOCK 4BE-13,2024-149AW,2026-06-18T18:40:50.850048,15.41921015,.00030136,97.3720,254.2061,251.7477,108.3442,0,U,60512,999,10261,.25293551E-3,.1067E-3,0
FLOCK 4BE-27,2024-149AX,2026-06-18T22:55:27.965856,15.34470468,.00024153,97.3822,251.8071,306.6181,53.4840,0,U,60513,999,10241,.21971798E-3,.7256E-4,0
FLOCK 4BE-9,2024-149AY,2026-06-18T17:07:42.444480,15.40833380,.00014063,97.3792,254.0000,283.6097,76.4993,0,U,60514,999,10255,.31561573E-3,.12864E-3,0
FLOCK 4BE-6,2024-149BA,2026-06-18T17:50:52.763136,15.39610817,.00020588,97.3789,253.3860,284.2398,75.8619,0,U,60516,999,10251,.29317965E-3,.11469E-3,0
FLOCK 4BE-14,2024-149BB,2026-06-18T18:58:54.274080,15.41031933,.00030153,97.3695,253.5711,282.0642,78.0266,0,U,60517,999,10257,.29575996E-3,.12129E-3,0
FLOCK 4BE-1,2024-149BC,2026-06-18T17:46:01.240032,15.42642197,.00028822,97.3781,254.8031,281.5323,78.5600,0,U,60518,999,10261,.3144936E-3,.13616E-3,0
FLOCK 4BE-28,2024-149BD,2026-06-18T18:03:08.790048,15.44955661,.0002988,97.3748,255.5439,274.0032,86.0875,0,U,60519,999,10268,.30249485E-3,.1416E-3,0
IPERDRONE.0,2024-149BE,2026-06-18T18:36:38.866176,15.66847239,.00037062,97.3773,263.0660,220.9449,139.1533,0,U,60520,999,10316,.55942805E-3,.59255E-3,0
TRANSPORTER-11 OBJECT BF,2024-149BF,2026-06-18T18:29:39.092640,15.85408745,.00063064,97.3766,265.8337,231.9465,128.1237,0,U,60521,999,10333,.85223926E-3,.207226E-2,0
CONNECTA IOT-2,2024-149BG,2026-06-18T22:52:09.563808,15.23986769,.00053724,97.3836,248.0718,330.5235,29.5699,0,U,60522,999,10216,.15024129E-3,.3567E-4,0
CONNECTA IOT-4,2024-149BJ,2026-06-18T18:20:59.343936,15.42186374,.00040482,97.3796,254.1536,277.3428,82.7359,0,U,60524,999,10257,.34154456E-3,.14575E-3,0
ORESAT0.5,2024-149BK,2026-06-18T17:41:41.208000,15.45127764,.00041574,97.3716,255.7616,265.8621,94.2153,0,U,60525,999,10271,.33812489E-3,.15937E-3,0
DEIMOS,2024-149BL,2026-06-18T23:09:14.126112,15.44274222,.00040706,97.3781,256.1317,272.6787,87.3995,0,U,60526,999,10272,.32326326E-3,.14794E-3,0
CUAVA-2,2024-149BM,2026-06-18T18:38:36.705408,15.36146291,.00051962,97.3724,251.2986,287.2407,72.8268,0,U,60527,999,10241,.26519903E-3,.9263E-4,0
ERNST,2024-149BN,2026-06-18T17:31:14.615328,15.39241934,.00043997,97.3809,253.4614,290.6614,69.4160,0,U,60528,999,10251,.27347028E-3,.10565E-3,0
TORO,2024-149BQ,2026-06-18T18:39:54.643392,14.96430695,.00014078,97.6790,244.4159,80.5377,279.6003,0,U,60530,999,10019,.10268804E-3,.1107E-4,0
HYPSO-2,2024-149BR,2026-06-18T16:04:02.427456,14.98793581,.00002532,97.6807,245.9089,48.1285,311.9959,0,U,60531,999,10027,.15664587E-3,.1829E-4,0
LEMU NGE,2024-149BS,2026-06-18T17:23:27.921408,14.94959081,.00019653,97.6844,244.6532,61.4659,298.6760,0,U,60532,999,10018,.12362124E-3,.1294E-4,0
LEMUR-2-STELLA,2024-149BT,2026-06-18T12:54:33.511104,15.11833501,.0001608,97.6734,251.9987,96.2198,263.9215,0,U,60533,999,10070,.48796E-3,.8277E-4,0
SATELIOT_2,2024-149BU,2026-06-18T18:21:31.270464,14.96368999,.0002149,97.6833,244.6921,92.2901,267.8566,0,U,60534,999,10020,.17038858E-3,.1872E-4,0
NIGHTJAR,2024-149BV,2026-06-18T22:15:54.468000,14.99023581,.00010503,97.6837,246.6109,80.3427,279.7915,0,U,60535,999,14313,.15681074E-3,.1842E-4,0
LEMUR-2-MARHISYAM,2024-149BW,2026-06-18T21:58:58.912896,15.11288850,.00032405,97.6878,252.8289,115.1714,244.9852,0,U,60536,999,10074,.53117541E-3,.8882E-4,0
SATELIOT_4,2024-149BX,2026-06-18T18:36:38.378016,14.96675362,.00031256,97.6742,244.2292,55.7489,304.4029,0,U,60537,999,10021,.10132477E-3,.1099E-4,0
PICO-02A021,2024-149BY,2026-06-18T23:07:39.661536,15.03268310,.00048119,97.6754,248.7792,23.5059,336.6386,0,U,60538,999,10000,.33221135E-3,.4442E-4,0
ICEYE-X43,2024-149BZ,2026-06-18T23:07:43.500288,14.99627438,.00082817,97.6789,246.9037,79.7172,280.4985,0,U,60539,999,10038,.26073897E-3,.3154E-4,0
