TANAGER-1               
1 60507U 24149AR  26169.77888330  .00003281  00000+0  71919-4 0  9990
2 60507  97.2542 264.0287 0003199 300.0531  60.0400 15.44815637103280
EAGLEEYE                
1 60508U 24149AS  26169.76258778  .00078488  00000+0  61908-3 0  9994
2 60508  97.3722 263.1881 0004410 234.6245 125.4606 15.71171976103187
FLOCK 4BE-29            
1 60509U 24149AT  26169.73524816  .00013096  00000+0  28736-3 0  9997
2 60509  97.3810 255.6313 0001376 280.7296  79.3798 15.44184922102653
TRANSPORTER-11 OBJECT AU
1 60510U 24149AU  26169.68213140  .00011336  00000+0  28374-3 0  9991
2 60510  97.3730 253.4146 0002268 280.4423  79.6567 15.40256688102546
FLOCK 4BE-2             
1 60511U 24149AV  26169.92803370  .00045253  00000+0  72759-3 0  9990
2 60511  97.3833 257.2725 0003549 246.8825 113.2054 15.52868327102774
FLOCK 4BE-13            
1 60512U 24149AW  26169.77836632  .00010670  00000+0  25294-3 0  9998
2 60512  97.3720 254.2061 0003013 251.7477 108.3442 15.41921015102615
FLOCK 4BE-27            
1 60513U 24149AX  26169.95518479  .00007256  00000+0  21972-3 0  9990
2 60513  97.3822 251.8071 0002415 306.6181  53.4840 15.34470468102413
FLOCK 4BE-9             
1 60514U 24149AY  26169.71368570  .00012864  00000+0  31562-3 0  9997
2 60514  97.3792 254.0000 0001406 283.6097  76.4993 15.40833380102558
FLOCK 4BE-6             
1 60516U 24149BA  26169.74366624  .00011469  00000+0  29318-3 0  9996
2 60516  97.3789 253.3860 0002058 284.2398  75.8619 15.39610817102517
FLOCK 4BE-14            
1 60517U 24149BB  26169.79090595  .00012129  00000+0  29576-3 0  9993
2 60517  97.3695 253.5711 0003015 282.0642  78.0266 15.41031933102571
FLOCK 4BE-1             
1 60518U 24149BC  26169.74029213  .00013616  00000+0  31449-3 0  9992
2 60518  97.3781 254.8031 0002882 281.5323  78.5600 15.42642197102611
FLOCK 4BE-28            
1 60519U 24149BD  26169.75218507  .00014160  00000+0  30249-3 0  9992
2 60519  97.3748 255.5439 0002988 274.0032  86.0875 15.44955661102686
IPERDRONE.0             
1 60520U 24149BE  26169.77544984  .00059255  00000+0  55943-3 0  9999
2 60520  97.3773 263.0660 0003706 220.9449 139.1533 15.66847239103167
TRANSPORTER-11 OBJECT BF
1 60521U 24149BF  26169.77059135  .00207226  00000+0  85224-3 0  9997
2 60521  97.3766 265.8337 0006306 231.9465 128.1237 15.85408745103334
CONNECTA IOT-2          
1 60522U 24149BG  26169.95288847  .00003567  00000+0  15024-3 0  9995
2 60522  97.3836 248.0718 0005372 330.5235  29.5699 15.23986769102167
CONNECTA IOT-4          
1 60524U 24149BJ  26169.76457574  .00014575  00000+0  34154-3 0  9997
2 60524  97.3796 254.1536 0004048 277.3428  82.7359 15.42186374102575
ORESAT0.5               
1 60525U 24149BK  26169.73728250  .00015937  00000+0  33812-3 0  9990
2 60525  97.3716 255.7616 0004157 265.8621  94.2153 15.45127764102719
DEIMOS                  
1 60526U 24149BL  26169.96474683  .00014794  00000+0  32326-3 0  9993
2 60526  97.3781 256.1317 0004070 272.6787  87.3995 15.44274222102727
CUAVA-2                 
1 60527U 24149BM  26169.77681372  .00009263  00000+0  26520-3 0  9992
2 60527  97.3724 251.2986 0005196 287.2407  72.8268 15.36146291102417
ERNST                   
1 60528U 24149BN  26169.73003027  .00010565  00000+0  27347-3 0  9999
2 60528  97.3809 253.4614 0004399 290.6614  69.4160 15.39241934102513
TORO                    
1 60530U 24149BQ  26169.77771578  .00001107  00000+0  10269-3 0  9996
2 60530  97.6790 244.4159 0001407  80.5377 279.6003 14.96430695100190
HYPSO-2                 
1 60531U 24149BR  26169.66947254  .00001829  00000+0  15665-3 0  9997
2 60531  97.6807 245.9089 0000253  48.1285 311.9959 14.98793581100271
LEMU NGE                
1 60532U 24149BS  26169.72462872  .00001294  00000+0  12362-3 0  9990
2 60532  97.6844 244.6532 0001965  61.4659 298.6760 14.94959081100182
LEMUR-2-STELLA          
1 60533U 24149BT  26169.53788786  .00008277  00000+0  48796-3 0  9993
2 60533  97.6734 251.9987 0001608  96.2198 263.9215 15.11833501100700
SATELIOT_2              
1 60534U 24149BU  26169.76494526  .00001872  00000+0  17039-3 0  9995
2 60534  97.6833 244.6921 0002149  92.2901 267.8566 14.96368999100200
NIGHTJAR                
1 60535U 24149BV  26169.92771375  .00001842  00000+0  15681-3 0  9992
2 60535  97.6837 246.6109 0001050  80.3427 279.7915 14.99023581143133
LEMUR-2-MARHISYAM       
1 60536U 24149BW  26169.91595964  .00008882  00000+0  53118-3 0  9998
2 60536  97.6878 252.8289 0003240 115.1714 244.9852 15.11288850100747
SATELIOT_4              
1 60537U 24149BX  26169.77544419  .00001099  00000+0  10132-3 0  9994
2 60537  97.6742 244.2292 0003125  55.7489 304.4029 14.96675362100217
PICO-02A021             
1 60538U 24149BY  26169.96365349  .00004442  00000+0  33221-3 0  9998
2 60538  97.6754 248.7792 0004811  23.5059 336.6386 15.03268310100004
ICEYE-X43               
1 60539U 24149BZ  26169.96369792  .00003154  00000+0  26074-3 0  9992
2 60539  97.6789 246.9037 0008281  79.7172 280.4985 14.99627438100385
